[{"OBJECT_NAME":"STARLINK-5552","OBJECT_ID":"2023-058Y","EPOCH":"2026-03-09T23:24:12.766464","MEAN_MOTION":15.01259475,"ECCENTRICITY":0.00018274,"INCLINATION":97.6029,"RA_OF_ASC_NODE":70.4842,"ARG_OF_PERICENTER":178.5517,"MEAN_ANOMALY":181.5713,"EPHEMERIS_TYPE":0,"CLASSIFICATION_TYPE":"U","NORAD_CAT_ID":56339,"ELEMENT_SET_NO":999,"REV_AT_EPOCH":15817,"BSTAR":-4.566163e-6,"MEAN_MOTION_DOT":-1.17e-6,"MEAN_MOTION_DDOT":0},{"OBJECT_NAME":"PEGASUS DEB","OBJECT_ID":"1994-029AFW","EPOCH":"2026-02-14T00:16:04.061568","MEAN_MOTION":13.82605489,"ECCENTRICITY":0.05286769,"INCLINATION":82.1466,"RA_OF_ASC_NODE":310.1334,"ARG_OF_PERICENTER":353.1786,"MEAN_ANOMALY":6.236,"EPHEMERIS_TYPE":0,"CLASSIFICATION_TYPE":"U","NORAD_CAT_ID":39923,"ELEMENT_SET_NO":999,"REV_AT_EPOCH":3748,"BSTAR":0.0018125184,"MEAN_MOTION_DOT":5.863e-5,"MEAN_MOTION_DDOT":0}]
